OBJECT_NAME,OBJECT_ID,EPOCH,MEAN_MOTION,ECCENTRICITY,INCLINATION,RA_OF_ASC_NODE,ARG_OF_PERICENTER,MEAN_ANOMALY,EPHEMERIS_TYPE,CLASSIFICATION_TYPE,NORAD_CAT_ID,ELEMENT_SET_NO,REV_AT_EPOCH,BSTAR,MEAN_MOTION_DOT,MEAN_MOTION_DDOT
BURSTCUBE,1998-067WM,2024-08-13T21:37:26.395680,15.76692918,.0005496,51.6312,19.5507,259.1853,100.8529,0,U,59562,999,1837,.14099E-2,.236807E-2,0
SNOOPI,1998-067WN,2024-08-13T20:02:25.842048,15.72313988,.0004774,51.6338,21.3776,254.6992,105.3479,0,U,59563,999,1834,.1672E-2,.232194E-2,0
STARLINK-31747,2024-076A,2024-08-14T04:11:29.081760,15.40695018,.0001204,43.0039,28.2572,265.2348,94.8371,0,U,59564,999,1863,-.62127E-5,-.563E-5,0
STARLINK-31388,2024-076B,2024-08-14T04:14:00.330144,15.40683803,.0001881,43.0040,27.4090,251.5929,108.4723,0,U,59565,999,1865,.71484E-4,.2682E-4,0
STARLINK-31332,2024-076C,2024-08-13T20:53:05.213472,15.40649689,.0001191,43.0018,29.3999,287.0815,72.9911,0,U,59566,999,1860,-.56932E-4,-.2676E-4,0
STARLINK-31689,2024-076D,2024-08-14T03:48:54.213984,15.40691096,.0001569,43.0027,28.1329,258.9966,101.0714,0,U,59567,999,1864,.50747E-4,.1816E-4,0
STARLINK-31471,2024-076E,2024-08-13T20:36:54.733248,15.40628749,.0001451,43.0017,29.3135,267.9232,92.1458,0,U,59568,999,1851,-.47373E-3,-.19993E-3,0
STARLINK-31470,2024-076F,2024-08-14T04:01:48.908352,15.40670629,.0001297,43.0004,28.2065,278.0173,82.0536,0,U,59569,999,1847,.10051E-4,.116E-5,0
STARLINK-31587,2024-076G,2024-08-14T03:16:38.542944,15.40688979,.0001871,43.0014,27.9590,267.8613,92.2029,0,U,59570,999,1863,.30762E-4,.981E-5,0
STARLINK-31606,2024-076H,2024-08-13T22:00:00.999936,15.40631497,.0001275,43.0026,29.4117,282.8011,221.6151,0,U,59571,999,575,.3189E-2,.134983E-2,0
STARLINK-31666,2024-076J,2024-08-14T03:22:11.487936,15.40685496,.0001962,43.0031,26.2451,276.7366,83.3267,0,U,59572,999,1866,.49635E-3,.20476E-3,0
STARLINK-31683,2024-076K,2024-08-13T17:39:53.548416,15.40656438,.0003291,43.0076,30.1130,277.2553,82.7930,0,U,59573,999,1858,-.28391E-3,-.1213E-3,0
STARLINK-31751,2024-076L,2024-08-14T04:10:46.965216,15.40685153,.0001076,43.0045,27.3867,239.7605,120.3145,0,U,59574,999,1865,-.50118E-4,-.2395E-4,0
STARLINK-31510,2024-076M,2024-08-14T03:55:20.953344,15.40694618,.0001829,43.0044,28.1682,258.6176,101.4475,0,U,59575,999,1864,-.14805E-3,-.6482E-4,0
STARLINK-31663,2024-076N,2024-08-14T04:07:32.719872,15.40680336,.0001949,43.0062,27.3559,260.4345,99.6291,0,U,59576,999,1865,-.13438E-3,-.5909E-4,0
STARLINK-31692,2024-076P,2024-08-13T17:23:44.033280,15.40618884,.0002401,43.0029,30.0259,280.7581,79.3005,0,U,59577,999,1858,-.1254E-2,-.52193E-3,0
STARLINK-31685,2024-076Q,2024-08-14T03:23:05.320320,15.40678580,.0003295,43.0033,27.9950,263.7510,96.2971,0,U,59578,999,1864,.89279E-4,.3424E-4,0
STARLINK-31686,2024-076R,2024-08-14T03:19:51.858624,15.40687087,.0002337,43.0050,27.9759,265.4873,94.5717,0,U,59579,999,1864,-.24528E-4,-.1328E-4,0
STARLINK-31668,2024-076S,2024-08-14T03:45:40.580352,15.40705376,.0001848,43.0039,28.1166,275.7297,84.3349,0,U,59580,999,1863,.10392E-4,.13E-5,0
STARLINK-31690,2024-076T,2024-08-13T20:49:50.530080,15.40655109,.0000994,43.0002,29.3798,262.6411,97.4333,0,U,59581,999,1861,-.25048E-3,-.10736E-3,0
STARLINK-31701,2024-076U,2024-08-13T17:33:29.115072,15.40640668,.000351,43.0075,30.0744,271.2720,88.7734,0,U,59582,999,1849,-.15707E-3,-.6848E-4,0
STARLINK-31697,2024-076V,2024-08-13T17:36:40.670784,15.40629035,.0001564,43.0015,30.0914,269.6965,90.3712,0,U,59583,999,1849,-.44071E-3,-.18625E-3,0
STARLINK-31662,2024-076W,2024-08-13T20:33:41.682816,15.40637138,.0000797,43.0005,29.2931,247.9950,112.0821,0,U,59584,999,1860,-.55815E-3,-.23497E-3,0
STARLINK-31702,2024-076X,2024-08-13T17:49:36.235200,15.40669975,.0000509,43.0029,30.1643,279.6226,80.4573,0,U,59585,999,1858,-.16156E-3,-.7038E-4,0
STARLINK-31704,2024-076Y,2024-08-13T22:00:00.999936,15.86976000,.0002181,42.9790,351.1008,284.9863,215.4887,0,U,59586,999,611,-.18861E-2,-.478356E-2,0
NEONSAT-1,2024-077A,2024-08-13T19:35:04.807968,15.18808468,.0013201,97.4101,305.1901,247.7719,112.2116,0,U,59587,999,1696,.10503E-2,.21885E-3,0
ACS3,2024-077B,2024-08-13T21:28:14.339424,13.67697513,.00189,97.4023,281.6624,298.4491,61.4756,0,U,59588,999,1529,.19077E-3,.133E-5,0
SHENZHOU-18 (SZ-18),2024-078A,2024-08-13T20:14:36.176064,15.60530429,.0002112,41.4681,91.7025,246.8998,113.1618,0,U,59591,999,1702,.68373E-3,.58127E-3,0
1998-067WP,1998-067WP,2024-08-13T19:01:58.149696,15.88542367,.0007639,51.6277,17.2830,286.6698,73.3468,0,U,59596,999,1842,.2072E-2,.636168E-2,0
1998-067WQ,1998-067WQ,2024-08-12T18:37:40.578240,15.87401178,.0006965,51.6323,22.5297,281.1459,78.8762,0,U,59597,999,1823,.28168E-2,.836116E-2,0
GSAT0225 (GALILEO 29),2024-079A,2024-08-13T07:14:08.049984,1.70474237,.0001436,54.7286,119.9127,202.9001,335.4825,0,U,59598,999,184,0,-.8E-7,0
GSAT0227 (GALILEO 30),2024-079C,2024-08-13T04:39:38.896416,1.70474165,.0001842,54.7240,119.9158,98.8804,261.1939,0,U,59600,999,189,0,-.8E-7,0
STARLINK-31770,2024-080A,2024-08-13T22:11:55.486464,15.40692192,.0000743,42.9962,63.0455,236.8665,123.2120,0,U,59601,999,1780,.52839E-4,.1904E-4,0
STARLINK-31778,2024-080B,2024-08-13T22:37:44.174496,15.40654966,.0001661,43.0022,63.1884,261.4300,98.6368,0,U,59602,999,1780,-.33641E-3,-.14309E-3,0
STARLINK-31776,2024-080C,2024-08-13T21:49:20.683488,15.40637795,.0000843,42.9991,62.9255,220.6598,139.4195,0,U,59603,999,1658,-.30965E-3,-.13188E-3,0
STARLINK-31765,2024-080D,2024-08-13T19:43:56.719200,15.40659847,.0001261,42.9996,64.0032,276.3301,83.7412,0,U,59604,999,1778,.54092E-3,.22328E-3,0
STARLINK-31767,2024-080E,2024-08-13T13:07:54.843456,15.40680067,.0001743,42.9933,65.3762,93.6336,266.4720,0,U,59605,999,1774,-.22516E-3,-.9691E-4,0
STARLINK-31782,2024-080F,2024-08-13T22:02:15.414144,15.40662285,.0001063,42.9989,62.9965,252.3196,107.7544,0,U,59606,999,1658,.24323E-3,.9857E-4,0
STARLINK-31755,2024-080G,2024-08-13T21:36:29.373408,15.40648252,.0000728,42.9995,62.8561,275.1755,84.9018,0,U,59607,999,1658,-.11997E-3,-.5302E-4,0
STARLINK-31585,2024-080H,2024-08-13T22:18:23.397408,15.40645131,.0000534,42.9946,63.0807,160.0825,200.0052,0,U,59608,999,1780,-.36277E-3,-.15398E-3,0
STARLINK-31667,2024-080J,2024-08-13T21:55:47.694144,15.40639334,.0000597,42.9986,62.9579,238.9334,121.1464,0,U,59609,999,1658,-.60863E-3,-.25589E-3,0
STARLINK-31729,2024-080K,2024-08-13T19:37:29.101152,15.40645601,.0001493,43.0008,63.9653,275.0714,84.9972,0,U,59610,999,1778,-.29901E-3,-.1275E-3,0
STARLINK-31448,2024-080L,2024-08-13T19:50:24.592128,15.40658725,.0001143,43.0046,64.0381,285.7736,74.2994,0,U,59611,999,1778,-.92427E-4,-.4157E-4,0
STARLINK-31748,2024-080M,2024-08-13T19:34:14.527488,15.40685792,.0000604,42.9990,63.9560,94.3976,265.6950,0,U,59612,999,1773,-.11871E-3,-.5256E-4,0
STARLINK-31746,2024-080N,2024-08-13T19:46:10.398144,15.41571520,.0000435,43.0014,63.1195,116.4474,243.6427,0,U,59613,999,1779,.4134E-3,.17511E-3,0
STARLINK-31762,2024-080P,2024-08-13T14:44:31.429824,15.40669634,.0001324,42.9993,65.0115,236.4830,123.5900,0,U,59614,999,1653,-.47176E-4,-.2271E-4,0
STARLINK-31761,2024-080Q,2024-08-13T14:34:48.706752,15.40658461,.0001543,42.9991,64.9598,223.3408,136.7327,0,U,59615,999,1770,-.21816E-3,-.9393E-4,0
STARLINK-31768,2024-080R,2024-08-13T22:34:33.266784,15.40624418,.0001996,43.0012,63.1667,260.3919,99.6712,0,U,59616,999,1658,-.30906E-3,-.13159E-3,0
STARLINK-31769,2024-080S,2024-08-13T22:08:41.838144,15.40656537,.000136,42.9996,63.0281,292.7861,67.2852,0,U,59617,999,1658,-.31538E-3,-.13435E-3,0
STARLINK-31784,2024-080T,2024-08-13T23:19:27.461568,15.40699829,.0001331,43.0003,62.5317,244.8895,115.1824,0,U,59618,999,1776,.96564E-4,.3732E-4,0
STARLINK-31777,2024-080U,2024-08-13T21:42:53.458560,15.40632570,.0000879,43.0009,62.8869,232.7920,127.2857,0,U,59619,999,1658,-.395E-3,-.16729E-3,0
STARLINK-31771,2024-080V,2024-08-14T04:00:00.999936,15.44460498,.0005111,43.0011,61.6109,293.8729,346.6458,0,U,59620,999,1779,.20643E-2,.98838E-3,0
STARLINK-31758,2024-080W,2024-08-13T19:47:08.946240,15.40671914,.0002411,43.0054,64.0148,277.7494,82.3089,0,U,59621,999,1773,-.22882E-3,-.9842E-4,0
STARLINK-31774,2024-080X,2024-08-13T19:40:42.358080,15.40661612,.0000689,43.0001,63.9824,274.1913,85.8864,0,U,59622,999,1778,-.21907E-3,-.9431E-4,0
STARLINK-31763,2024-080Y,2024-08-13T21:58:58.766016,15.40730769,.0001217,43.0017,62.9750,256.5047,103.5674,0,U,59623,999,1779,.70234E-4,.2634E-4,0
SZ-17 MODULE,2023-164C,2024-08-13T19:17:34.896768,15.70903245,.001025,41.4756,88.7233,293.6725,66.3041,0,U,59624,999,1658,.57113E-3,.74056E-3,0
LEGION 1,2024-081A,2024-08-14T03:37:37.093728,15.16633428,.0005046,97.5725,298.1553,169.0252,191.1092,0,U,59625,999,1566,.77194E-3,.15051E-3,0
LEGION 2,2024-081B,2024-08-14T04:26:31.720704,15.16742435,.0003311,97.5726,298.2631,287.3463,72.7407,0,U,59626,999,1567,.78633E-3,.15378E-3,0
STARLINK-31749,2024-082A,2024-08-14T04:51:59.801472,15.40690252,.0000748,42.9985,154.8851,287.4723,72.6052,0,U,59631,999,1672,-.10596E-4,-.745E-5,0
STARLINK-31781,2024-082B,2024-08-14T03:21:17.373888,15.40679104,.0001384,43.0022,143.7274,265.8863,94.1835,0,U,59632,999,1710,-.38847E-3,-.16484E-3,0
STARLINK-31541,2024-082C,2024-08-14T04:06:51.130368,15.40668735,.0000984,42.9987,154.6417,255.5058,104.5689,0,U,59633,999,1720,-.30663E-4,-.1582E-4,0
STARLINK-31797,2024-082D,2024-08-14T04:26:12.024960,15.40671074,.0000751,43.0025,154.7453,286.2282,73.8492,0,U,59634,999,1699,.4787E-3,.19725E-3,0
STARLINK-31798,2024-082E,2024-08-14T03:44:16.820736,15.40667936,.0000375,43.0010,154.5199,245.0751,115.0067,0,U,59635,999,1698,-.69182E-4,-.3188E-4,0
STARLINK-31802,2024-082F,2024-08-14T03:57:09.168480,15.40684921,.0000864,42.9992,154.5888,271.2298,88.8459,0,U,59636,999,1700,-.74683E-4,-.342E-4,0
STARLINK-31791,2024-082G,2024-08-14T04:39:05.154624,15.40720999,.0001342,43.0014,154.8140,264.2656,95.8047,0,U,59637,999,1700,.40437E-3,.16636E-3,0
STARLINK-31727,2024-082H,2024-08-14T05:04:42.730752,15.40683514,.0000984,42.9975,154.0778,252.8054,107.2695,0,U,59638,999,1706,.17941E-3,.7194E-4,0
